NORAD_CAT_ID,OBJECT_NAME,OBJECT_TYPE,EPOCH,MEAN_MOTION,ECCENTRICITY,INCLINATION,RA_OF_ASC_NODE,ARG_OF_PERICENTER,MEAN_ANOMALY,BSTAR,MEAN_MOTION_DOT,MEAN_MOTION_DDOT,TLE_LINE0,TLE_LINE1,TLE_LINE2,SEMIMAJOR_AXIS,PERIOD,APOGEE,PERIGEE,DECAYED
52623.0,STARLINK-3986,PAYLOAD,2023-08-04 23:13:01,15.08842947,0.0001216,53.2162,203.6072,90.46,269.6531,7.3097e-05,8.76e-06,0.0,0 STARLINK-3986,1 52623U 22052AB  23216.96737839  .00000876  00000-0  73097-4 0  9996,2 52623  53.2162 203.6072 0001216  90.4600 269.6531 15.08842947 68293,6917.871,95.437,540.578,538.895,0.0
52623.0,STARLINK-3986,PAYLOAD,2023-08-05 08:45:19,15.08849639,0.0001253,53.2163,201.8227,91.2076,268.9059,0.00011932,1.612e-05,0.0,0 STARLINK-3986,1 52623U 22052AB  23217.36481179  .00001612  00000-0  11932-3 0  9992,2 52623  53.2163 201.8227 0001253  91.2076 268.9059 15.08849639 68352,6917.851,95.437,540.583,538.849,0.0
52623.0,STARLINK-3986,PAYLOAD,2023-08-06 03:49:57,15.08839301,0.0001212,53.2159,198.2532,96.6426,263.4704,7.0428e-05,8.33e-06,0.0,0 STARLINK-3986,1 52623U 22052AB  23218.15969855  .00000833  00000-0  70428-4 0  9992,2 52623  53.2159 198.2532 0001212  96.6426 263.4704 15.08839301 68473,6917.883,95.438,540.586,538.909,0.0
52623.0,STARLINK-3986,PAYLOAD,2023-08-06 22:54:36,15.08835956,0.0001105,53.2163,194.6837,106.9563,253.155,-6.1666e-05,-1.269e-05,0.0,0 STARLINK-3986,1 52623U 22052AB  23218.95458556 -.00001269  00000-0 -61666-4 0  9991,2 52623  53.2163 194.6837 0001105 106.9563 253.1550 15.08835956 68594,6917.893,95.438,540.522,538.993,0.0
52623.0,STARLINK-3986,PAYLOAD,2023-08-08 08:17:41,15.08848385,0.0001178,53.2167,188.4427,101.5473,258.5652,0.00013774,1.905e-05,0.0,0 STARLINK-3986,1 52623U 22052AB  23220.34561596  .00001905  00000-0  13774-3 0  9997,2 52623  53.2167 188.4427 0001178 101.5473 258.5652 15.08848385 68801,6917.855,95.437,540.535,538.905,0.0
52623.0,STARLINK-3986,PAYLOAD,2023-08-08 22:36:10,15.08830887,0.0001288,53.2169,185.7667,110.7315,249.3815,9.7816e-05,1.269e-05,0.0,0 STARLINK-3986,1 52623U 22052AB  23220.94178844  .00001269  00000-0  97816-4 0  9996,2 52623  53.2169 185.7667 0001288 110.7315 249.3815 15.08830887 68894,6917.908,95.438,540.664,538.882,0.0
52623.0,STARLINK-3986,PAYLOAD,2023-08-10 06:23:53,15.0884147,0.0001181,53.2169,179.8201,105.8634,254.2488,2.5621e-05,1.2e-06,0.0,0 STARLINK-3986,1 52623U 22052AB  23222.26658719  .00000120  00000-0  25621-4 0  9997,2 52623  53.2169 179.8201 0001181 105.8634 254.2488 15.08841470 69097,6917.876,95.437,540.558,538.924,0.0
52623.0,STARLINK-3986,PAYLOAD,2023-08-11 14:11:36,15.08834893,0.00013,53.2136,173.8709,88.6535,271.4606,3.8309e-05,3.22e-06,0.0,0 STARLINK-3986,1 52623U 22052AB  23223.59139278  .00000322  00000-0  38309-4 0  9999,2 52623  53.2136 173.8709 0001300  88.6535 271.4606 15.08834893 69295,6917.896,95.438,540.66,538.862,0.0
52623.0,STARLINK-3986,PAYLOAD,2023-08-13 02:45:27,15.08844735,0.0001281,53.2166,167.0337,88.1108,272.0031,9.5585e-05,1.234e-05,0.0,0 STARLINK-3986,1 52623U 22052AB  23225.11490679  .00001234  00000-0  95585-4 0  9996,2 52623  53.2166 167.0337 0001281  88.1108 272.0031 15.08844735 69520,6917.866,95.437,540.617,538.845,0.0
52623.0,STARLINK-3986,PAYLOAD,2023-08-14 02:36:15,15.08839911,0.0001381,53.2169,162.5728,95.4742,264.6407,1.7872e-05,-3e-08,0.0,0 STARLINK-3986,1 52623U 22052AB  23226.10851280 -.00000003  00000-0  17872-4 0  9992,2 52623  53.2169 162.5728 0001381  95.4742 264.6407 15.08839911 69673,6917.881,95.438,540.701,538.79,0.0
52623.0,STARLINK-3986,PAYLOAD,2023-08-15 23:07:03,15.08837546,0.0001446,53.217,154.2473,97.4433,262.6723,7.3834e-05,8.87e-06,0.0,0 STARLINK-3986,1 52623U 22052AB  23227.96323522  .00000887  00000-0  73834-4 0  9999,2 52623  53.2170 154.2473 0001446  97.4433 262.6723 15.08837546 69953,6917.888,95.438,540.753,538.753,0.0
52623.0,STARLINK-3986,PAYLOAD,2023-08-17 02:08:36,15.0884722,0.0001431,53.2177,149.1921,91.5474,268.5682,6.4543e-05,7.4e-06,0.0,0 STARLINK-3986,1 52623U 22052AB  23229.08931130  .00000740  00000-0  64543-4 0  9999,2 52623  53.2177 149.1921 0001431  91.5474 268.5682 15.08847220 70125,6917.858,95.437,540.713,538.733,0.0
52623.0,STARLINK-3986,PAYLOAD,2023-08-18 01:59:23,15.08842836,0.0001373,53.2178,144.7302,78.3258,281.7888,6.6268e-05,7.67e-06,0.0,0 STARLINK-3986,1 52623U 22052AB  23230.08291416  .00000767  00000-0  66268-4 0  9992,2 52623  53.2178 144.7302 0001373  78.3258 281.7888 15.08842836 70277,6917.872,95.437,540.687,538.787,0.0
52623.0,STARLINK-3986,PAYLOAD,2023-08-19 00:14:47,15.08840305,0.0001186,53.2172,140.5694,98.2841,261.8286,-1.4807e-05,-5.23e-06,0.0,0 STARLINK-3986,1 52623U 22052AB  23231.01027764 -.00000523  00000-0 -14807-4 0  9993,2 52623  53.2172 140.5694 0001186  98.2841 261.8286 15.08840305 70416,6917.879,95.438,540.565,538.924,0.0
52623.0,STARLINK-3986,PAYLOAD,2023-08-20 03:16:21,15.08851008,0.0001105,53.217,135.5126,96.8816,263.2302,-0.00010209,-1.913e-05,0.0,0 STARLINK-3986,1 52623U 22052AB  23232.13635530 -.00001913  00000-0 -10209-3 0  9998,2 52623  53.2170 135.5126 0001105  96.8816 263.2302 15.08851008 70580,6917.847,95.437,540.476,538.947,0.0
52623.0,STARLINK-3986,PAYLOAD,2023-08-20 23:56:21,15.08841778,0.000143,53.2183,131.6461,101.7123,258.403,0.00014034,1.946e-05,0.0,0 STARLINK-3986,1 52623U 22052AB  23232.99747502  .00001946  00000-0  14034-3 0  9999,2 52623  53.2183 131.6461 0001430 101.7123 258.4030 15.08841778 70713,6917.875,95.437,540.729,538.751,0.0
52623.0,STARLINK-3986,PAYLOAD,2023-08-21 23:47:09,15.0883967,0.0001427,53.2182,127.1858,96.8799,263.2355,6.0015e-05,6.67e-06,0.0,0 STARLINK-3986,1 52623U 22052AB  23233.99108047  .00000667  00000-0  60015-4 0  9995,2 52623  53.2182 127.1858 0001427  96.8799 263.2355 15.08839670 70869,6917.881,95.438,540.734,538.759,0.0
52623.0,STARLINK-3986,PAYLOAD,2023-08-23 02:48:42,15.08842921,0.0001354,53.2178,122.1311,89.5791,270.5357,-1.4243e-05,-5.15e-06,0.0,0 STARLINK-3986,1 52623U 22052AB  23235.11716108 -.00000515  00000-0 -14243-4 0  9990,2 52623  53.2178 122.1311 0001354  89.5791 270.5357 15.08842921 71039,6917.871,95.437,540.673,538.8,0.0
52623.0,STARLINK-3986,PAYLOAD,2023-08-24 15:22:35,15.08835537,0.0001215,53.217,115.2933,88.595,271.5181,8.7577e-05,1.106e-05,0.0,0 STARLINK-3986,1 52623U 22052AB  23236.64068595  .00001106  00000-0  87577-4 0  9994,2 52623  53.2170 115.2933 0001215  88.5950 271.5181 15.08835537 70889,6917.894,95.438,540.6,538.919,0.0
52623.0,STARLINK-3986,PAYLOAD,2023-08-24 23:19:30,15.08842879,0.0001275,53.2171,113.8068,86.5291,273.5847,0.00013536,1.867e-05,0.0,0 STARLINK-3986,1 52623U 22052AB  23236.97188056  .00001867  00000-0  13536-3 0  9992,2 52623  53.2171 113.8068 0001275  86.5291 273.5847 15.08842879 71312,6917.872,95.437,540.619,538.855,0.0
52623.0,STARLINK-3986,PAYLOAD,2023-08-25 21:34:53,15.08849644,0.0001452,53.2166,109.646,78.5556,281.5599,0.00016206,2.293e-05,0.0,0 STARLINK-3986,1 52623U 22052AB  23237.89923474  .00002293  00000-0  16206-3 0  9996,2 52623  53.2166 109.6460 0001452  78.5556 281.5599 15.08849644 71070,6917.851,95.437,540.72,538.711,0.0
52623.0,STARLINK-3986,PAYLOAD,2023-08-26 00:45:39,15.08858136,0.0001417,53.217,109.0488,82.082,278.0333,0.0002978,4.457e-05,0.0,0 STARLINK-3986,1 52623U 22052AB  23238.03170533  .00004457  00000-0  29780-3 0  9998,2 52623  53.2170 109.0488 0001417  82.0820 278.0333 15.08858136 71471,6917.825,95.436,540.67,538.71,0.0
52623.0,STARLINK-3986,PAYLOAD,2023-08-26 15:04:09,15.08840927,0.0002044,53.2164,106.3753,68.2084,291.9126,1.2409e-05,-9.1e-07,0.0,0 STARLINK-3986,1 52623U 22052AB  23238.62788527 -.00000091  00000-0  12409-4 0  9993,2 52623  53.2164 106.3753 0002044  68.2084 291.9126 15.08840927 71567,6917.878,95.437,541.157,538.329,0.0
52623.0,STARLINK-3986,PAYLOAD,2023-08-26 21:25:42,15.08835324,0.0001438,53.2162,105.1831,68.8018,291.3128,-3.7774e-05,-8.89e-06,0.0,0 STARLINK-3986,1 52623U 22052AB  23238.89284931 -.00000889  00000-0 -37774-4 0  9990,2 52623  53.2162 105.1831 0001438  68.8018 291.3128 15.08835324 71222,6917.895,95.438,540.754,538.765,0.0
52623.0,STARLINK-3986,PAYLOAD,2023-08-27 00:36:28,15.08838213,0.0001248,53.2173,104.5866,101.1879,258.9254,-4.0084e-05,-9.26e-06,0.0,0 STARLINK-3986,1 52623U 22052AB  23239.02532580 -.00000926  00000-0 -40084-4 0  9992,2 52623  53.2173 104.5866 0001248 101.1879 258.9254 15.08838213 71241,6917.886,95.438,540.614,538.887,0.0
52623.0,STARLINK-3986,PAYLOAD,2023-08-27 21:16:28,15.08847976,0.0001407,53.2179,100.7211,81.8833,278.2319,-8.5148e-05,-1.643e-05,0.0,0 STARLINK-3986,1 52623U 22052AB  23239.88644312 -.00001643  00000-0 -85148-4 0  9990,2 52623  53.2179 100.7211 0001407  81.8833 278.2319 15.08847976 71377,6917.856,95.437,540.694,538.748,0.0
52623.0,STARLINK-3986,PAYLOAD,2023-08-27 22:51:51,15.08849258,0.0001361,53.2176,100.4232,87.1232,272.9916,-7.2431e-05,-1.441e-05,0.0,0 STARLINK-3986,1 52623U 22052AB  23239.95268142 -.00001441  00000-0 -72431-4 0  9998,2 52623  53.2176 100.4232 0001361  87.1232 272.9916 15.08849258 71767,6917.852,95.437,540.659,538.776,0.0
52623.0,STARLINK-3986,PAYLOAD,2023-08-28 21:07:16,15.08835535,0.0001394,53.2176,96.2605,92.5897,267.5255,0.0001521,2.133e-05,0.0,0 STARLINK-3986,1 52623U 22052AB  23240.88004787  .00002133  00000-0  15210-3 0  9993,2 52623  53.2176  96.2605 0001394  92.5897 267.5255 15.08835535 71529,6917.894,95.438,540.723,538.795,0.0
52623.0,STARLINK-3986,PAYLOAD,2023-08-29 00:18:02,15.08837223,0.0001435,53.2177,95.6658,91.712,268.4037,0.00016442,2.33e-05,0.0,0 STARLINK-3986,1 52623U 22052AB  23241.01252733  .00002330  00000-0  16442-3 0  9992,2 52623  53.2177  95.6658 0001435  91.7120 268.4037 15.08837223 71925,6917.889,95.438,540.747,538.761,0.0
52623.0,STARLINK-3986,PAYLOAD,2023-08-29 19:22:40,15.08837478,0.0001412,53.2179,92.0969,91.0217,269.0937,6.5026e-05,7.47e-06,0.0,0 STARLINK-3986,1 52623U 22052AB  23241.80741205  .00000747  00000-0  65026-4 0  9999,2 52623  53.2179  92.0969 0001412  91.0217 269.0937 15.08837478 71667,6917.888,95.438,540.73,538.776,0.0
